{"type": "FeatureCollection", "features": [ {"type": "Feature", "properties": {"norad_id": 67031, "name": "STARLINK-36150", "group": "last-30-days", "lat": 26.4744896391175, "lon": 152.50836007380542, "alt_km": 323.30650396283, "timestamp": "2025-12-22T20:43:44.568403+00:00", "meta": {"OBJECT_NAME": "STARLINK-36150", "OBJECT_ID": "2025-294B", "EPOCH": "2025-12-22T14:00:01.999872", "MEAN_MOTION": 15.82407795, "ECCENTRICITY": 0.00013571, "INCLINATION": 42.9999, "RA_OF_ASC_NODE": 121.9193, "ARG_OF_PERICENTER": 279.2338, "MEAN_ANOMALY": 323.2225, "EPHEMERIS_TYPE": 0, "CLASSIFICATION_TYPE": "U", "NORAD_CAT_ID": 67031, "ELEMENT_SET_NO": 999, "REV_AT_EPOCH": 188, "BSTAR": -0.010482651, "MEAN_MOTION_DOT": -0.01954983, "MEAN_MOTION_DDOT": 0}, "tle": {"line1": "1 67031U 25294B   25356.58335648 -.01954983  00000+0 -10483-1 0  9999", "line2": "2 67031  42.9999 121.9193 0001357 279.2338 323.2225 15.82407795  1881"}}, "geometry": {"type": "Point", "coordinates": [152.50836007380542, 26.4744896391175]}}, {"type": "Feature", "properties": {"norad_id": 67032, "name": "STARLINK-36131", "group": "last-30-days", "lat": 28.85231622006619, "lon": 156.4363276280529, "alt_km": 323.0699958104451, "timestamp": "2025-12-22T20:43:44.568413+00:00", "meta": {"OBJECT_NAME": "STARLINK-36131", "OBJECT_ID": "2025-294C", "EPOCH": "2025-12-22T14:00:01.999872", "MEAN_MOTION": 15.8234781, "ECCENTRICITY": 0.0001268, "INCLINATION": 42.9997, "RA_OF_ASC_NODE": 121.9084, "ARG_OF_PERICENTER": 277.1652, "MEAN_ANOMALY": 329.5546, "EPHEMERIS_TYPE": 0, "CLASSIFICATION_TYPE": "U", "NORAD_CAT_ID": 67032, "ELEMENT_SET_NO": 999, "REV_AT_EPOCH": 169, "BSTAR": -0.010236496, "MEAN_MOTION_DOT": -0.01910297, "MEAN_MOTION_DDOT": 0}, "tle": {"line1": "1 67032U 25294C   25356.58335648 -.01910297  00000+0 -10236-1 0  9996", "line2": "2 67032  42.9997 121.9084 0001268 277.1652 329.5546 15.82347810  1691"}}, "geometry": {"type": "Point", "coordinates": [156.4363276280529, 28.85231622006619]}}, {"type": "Feature", "properties": {"norad_id": 67033, "name": "STARLINK-36137", "group": "last-30-days", "lat": 27.66565396989185, "lon": 154.4330396834577, "alt_km": 323.2024366575879, "timestamp": "2025-12-22T20:43:44.568423+00:00", "meta": {"OBJECT_NAME": "STARLINK-36137", "OBJECT_ID": "2025-294D", "EPOCH": "2025-12-22T14:00:01.999872", "MEAN_MOTION": 15.823989, "ECCENTRICITY": 0.0001314, "INCLINATION": 42.9994, "RA_OF_ASC_NODE": 121.9148, "ARG_OF_PERICENTER": 276.5126, "MEAN_ANOMALY": 328.0415, "EPHEMERIS_TYPE": 0, "CLASSIFICATION_TYPE": "U", "NORAD_CAT_ID": 67033, "ELEMENT_SET_NO": 999, "REV_AT_EPOCH": 169, "BSTAR": -0.010478351, "MEAN_MOTION_DOT": -0.01953529, "MEAN_MOTION_DDOT": 0}, "tle": {"line1": "1 67033U 25294D   25356.58335648 -.01953529  00000+0 -10478-1 0  9990", "line2": "2 67033  42.9994 121.9148 0001314 276.5126 328.0415 15.82398900  1696"}}, "geometry": {"type": "Point", "coordinates": [154.4330396834577, 27.66565396989185]}}, {"type": "Feature", "properties": {"norad_id": 67034, "name": "STARLINK-36140", "group": "last-30-days", "lat": 30.079256224485746, "lon": 158.6162523927992, "alt_km": 323.1957059162705, "timestamp": "2025-12-22T20:43:44.568433+00:00", "meta": {"OBJECT_NAME": "STARLINK-36140", "OBJECT_ID": "2025-294E", "EPOCH": "2025-12-22T14:00:01.999872", "MEAN_MOTION": 15.82364276, "ECCENTRICITY": 0.00016025, "INCLINATION": 42.9997, "RA_OF_ASC_NODE": 121.9033, "ARG_OF_PERICENTER": 269.9674, "MEAN_ANOMALY": 339.0039, "EPHEMERIS_TYPE": 0, "CLASSIFICATION_TYPE": "U", "NORAD_CAT_ID": 67034, "ELEMENT_SET_NO": 999, "REV_AT_EPOCH": 169, "BSTAR": -0.010361155, "MEAN_MOTION_DOT": -0.01932128, "MEAN_MOTION_DDOT": 0}, "tle": {"line1": "1 67034U 25294E   25356.58335648 -.01932128  00000+0 -10361-1 0  9994", "line2": "2 67034  42.9997 121.9033 0001602 269.9674 339.0039 15.82364276  1690"}}, "geometry": {"type": "Point", "coordinates": [158.6162523927992, 30.079256224485746]}}, {"type": "Feature", "properties": {"norad_id": 67035, "name": "STARLINK-36085", "group": "last-30-days", "lat": 32.448959636919426, "lon": 163.19979905035538, "alt_km": 322.8261097973718, "timestamp": "2025-12-22T20:43:44.568443+00:00", "meta": {"OBJECT_NAME": "STARLINK-36085", "OBJECT_ID": "2025-294F", "EPOCH": "2025-12-22T14:00:01.999872", "MEAN_MOTION": 15.82345681, "ECCENTRICITY": 0.00014169, "INCLINATION": 42.9999, "RA_OF_ASC_NODE": 121.8916, "ARG_OF_PERICENTER": 271.5585, "MEAN_ANOMALY": 342.019, "EPHEMERIS_TYPE": 0, "CLASSIFICATION_TYPE": "U", "NORAD_CAT_ID": 67035, "ELEMENT_SET_NO": 999, "REV_AT_EPOCH": 169, "BSTAR": -0.01043652, "MEAN_MOTION_DOT": -0.01942619, "MEAN_MOTION_DDOT": 0}, "tle": {"line1": "1 67035U 25294F   25356.58335648 -.01942619  00000+0 -10437-1 0  9995", "line2": "2 67035  42.9999 121.8916 0001416 271.5585 342.0190 15.82345681  1696"}}, "geometry": {"type": "Point", "coordinates": [163.19979905035538, 32.448959636919426]}}, {"type": "Feature", "properties": {"norad_id": 67036, "name": "STARLINK-36125", "group": "last-30-days", "lat": 31.28434417393366, "lon": 160.8788101242399, "alt_km": 322.8929899999375, "timestamp": "2025-12-22T20:43:44.568453+00:00", "meta": {"OBJECT_NAME": "STARLINK-36125", "OBJECT_ID": "2025-294G", "EPOCH": "2025-12-22T14:00:01.999872", "MEAN_MOTION": 15.82362062, "ECCENTRICITY": 0.00013973, "INCLINATION": 42.9998, "RA_OF_ASC_NODE": 121.8975, "ARG_OF_PERICENTER": 274.4951, "MEAN_ANOMALY": 336.7768, "EPHEMERIS_TYPE": 0, "CLASSIFICATION_TYPE": "U", "NORAD_CAT_ID": 67036, "ELEMENT_SET_NO": 999, "REV_AT_EPOCH": 188, "BSTAR": -0.010483902, "MEAN_MOTION_DOT": -0.01951548, "MEAN_MOTION_DDOT": 0}, "tle": {"line1": "1 67036U 25294G   25356.58335648 -.01951548  00000+0 -10484-1 0  9999", "line2": "2 67036  42.9998 121.8975 0001397 274.4951 336.7768 15.82362062  1882"}}, "geometry": {"type": "Point", "coordinates": [160.8788101242399, 31.28434417393366]}}, {"type": "Feature", "properties": {"norad_id": 67037, "name": "STARLINK-35732", "group": "last-30-days", "lat": 33.634564333937206, "lon": 165.7242097437866, "alt_km": 322.78927025224584, "timestamp": "2025-12-22T20:43:44.568465+00:00", "meta": {"OBJECT_NAME": "STARLINK-35732", "OBJECT_ID": "2025-294H", "EPOCH": "2025-12-22T14:00:01.999872", "MEAN_MOTION": 15.82325049, "ECCENTRICITY": 0.00014955, "INCLINATION": 42.9997, "RA_OF_ASC_NODE": 121.8856, "ARG_OF_PERICENTER": 270.3518, "MEAN_ANOMALY": 345.6738, "EPHEMERIS_TYPE": 0, "CLASSIFICATION_TYPE": "U", "NORAD_CAT_ID": 67037, "ELEMENT_SET_NO": 999, "REV_AT_EPOCH": 180, "BSTAR": -0.010444476, "MEAN_MOTION_DOT": -0.01942331, "MEAN_MOTION_DDOT": 0}, "tle": {"line1": "1 67037U 25294H   25356.58335648 -.01942331  00000+0 -10444-1 0  9996", "line2": "2 67037  42.9997 121.8856 0001495 270.3518 345.6738 15.82325049  1805"}}, "geometry": {"type": "Point", "coordinates": [165.7242097437866, 33.634564333937206]}}, {"type": "Feature", "properties": {"norad_id": 67038, "name": "STARLINK-35775", "group": "last-30-days", "lat": 34.63244264491325, "lon": 167.9978054613691, "alt_km": 322.4947797209934, "timestamp": "2025-12-22T20:43:44.568475+00:00", "meta": {"OBJECT_NAME": "STARLINK-35775", "OBJECT_ID": "2025-294J", "EPOCH": "2025-12-22T14:00:01.999872", "MEAN_MOTION": 15.82320197, "ECCENTRICITY": 0.00013196, "INCLINATION": 42.9998, "RA_OF_ASC_NODE": 121.8802, "ARG_OF_PERICENTER": 276.0839, "MEAN_ANOMALY": 342.0809, "EPHEMERIS_TYPE": 0, "CLASSIFICATION_TYPE": "U", "NORAD_CAT_ID": 67038, "ELEMENT_SET_NO": 999, "REV_AT_EPOCH": 180, "BSTAR": -0.010493559, "MEAN_MOTION_DOT": -0.0194966, "MEAN_MOTION_DDOT": 0}, "tle": {"line1": "1 67038U 25294J   25356.58335648 -.01949660  00000+0 -10494-1 0  9994", "line2": "2 67038  42.9998 121.8802 0001319 276.0839 342.0809 15.82320197  1801"}}, "geometry": {"type": "Point", "coordinates": [167.9978054613691, 34.63244264491325]}}, {"type": "Feature", "properties": {"norad_id": 67039, "name": "STARLINK-35705", "group": "last-30-days", "lat": 36.5444662678083, "lon": 172.84340938060967, "alt_km": 322.32118137690577, "timestamp": "2025-12-22T20:43:44.568485+00:00", "meta": {"OBJECT_NAME": "STARLINK-35705", "OBJECT_ID": "2025-294K", "EPOCH": "2025-12-22T14:00:01.999872", "MEAN_MOTION": 15.82299587, "ECCENTRICITY": 0.00013322, "INCLINATION": 42.9997, "RA_OF_ASC_NODE": 121.8692, "ARG_OF_PERICENTER": 275.3754, "MEAN_ANOMALY": 347.193, "EPHEMERIS_TYPE": 0, "CLASSIFICATION_TYPE": "U", "NORAD_CAT_ID": 67039, "ELEMENT_SET_NO": 999, "REV_AT_EPOCH": 169, "BSTAR": -0.010502824, "MEAN_MOTION_DOT": -0.01949508, "MEAN_MOTION_DDOT": 0}, "tle": {"line1": "1 67039U 25294K   25356.58335648 -.01949508  00000+0 -10503-1 0  9997", "line2": "2 67039  42.9997 121.8692 0001332 275.3754 347.1930 15.82299587  1697"}}, "geometry": {"type": "Point", "coordinates": [172.84340938060967, 36.5444662678083]}}, {"type": "Feature", "properties": {"norad_id": 67040, "name": "STARLINK-35786", "group": "last-30-days", "lat": 35.64958440868911, "lon": 170.48451379949074, "alt_km": 322.4101751816461, "timestamp": "2025-12-22T20:43:44.568497+00:00", "meta": {"OBJECT_NAME": "STARLINK-35786", "OBJECT_ID": "2025-294L", "EPOCH": "2025-12-22T14:00:01.999872", "MEAN_MOTION": 15.82306277, "ECCENTRICITY": 0.00012911, "INCLINATION": 42.9999, "RA_OF_ASC_NODE": 121.8745, "ARG_OF_PERICENTER": 273.9454, "MEAN_ANOMALY": 346.5086, "EPHEMERIS_TYPE": 0, "CLASSIFICATION_TYPE": "U", "NORAD_CAT_ID": 67040, "ELEMENT_SET_NO": 999, "REV_AT_EPOCH": 169, "BSTAR": -0.010481505, "MEAN_MOTION_DOT": -0.01946576, "MEAN_MOTION_DDOT": 0}, "tle": {"line1": "1 67040U 25294L   25356.58335648 -.01946576  00000+0 -10482-1 0  9997", "line2": "2 67040  42.9999 121.8745 0001291 273.9454 346.5086 15.82306277  1695"}}, "geometry": {"type": "Point", "coordinates": [170.48451379949074, 35.64958440868911]}}]}